ONEWEB-0528             
1 54643U 22166B   24062.88376048  .00000033  00000+0  49589-4 0  9991
2 54643  87.9231  50.4288 0001970  80.3434 279.7922 13.21825504 61062
ONEWEB-0539             
1 54644U 22166C   24062.92003942  .00000058  00000+0  10943-3 0  9995
2 54644  87.9231  50.4224 0002123  87.8694 272.2683 13.21826201 61061
ONEWEB-0540             
1 54645U 22166D   24063.44439172  .00000080  00000+0  16235-3 0  9997
2 54645  87.9226  50.3422 0002226  85.0874 275.0514 13.21825968 61590
ONEWEB-0542             
1 54646U 22166E   24063.45935667  .00000117  00000+0  25260-3 0  9998
2 54646  87.9232  50.3150 0002331  95.5641 264.5758 13.21826215 61590
ONEWEB-0545             
1 54647U 22166F   24063.19916604 -.00000029  00000+0 -10100-3 0  9991
2 54647  87.9221  50.3985 0002458  87.2285 272.9131 13.21824837 61537
ONEWEB-0580             
1 54648U 22166G   24062.94526577  .00000045  00000+0  76724-4 0  9991
2 54648  87.9228  50.4096 0002370  97.0145 263.1259 13.21825528 61076
ONEWEB-0582             
1 54649U 22166H   24062.98784624  .00000094  00000+0  19697-3 0  9994
2 54649  87.9225  50.4419 0002204  80.7566 279.3817 13.21826411 61526
ONEWEB-0583             
1 54650U 22166J   24062.99887998  .00000051  00000+0  92694-4 0  9997
2 54650  87.9224  50.4417 0001643  76.3083 283.8234 13.21826072 61544
